{
  "type": "FeatureCollection",
  "features": [
    {
      "type": "Feature",
      "properties": {
        "norad_id": 66543,
        "name": "STARLINK-35315",
        "group": "last-30-days",
        "lat": 31.948728597922308,
        "lon": 66.68798252518322,
        "alt_km": 416.9119736670227,
        "timestamp": "2025-12-17T17:50:17.972163+00:00",
        "meta_object_name": "STARLINK-35315",
        "meta_object_id": "2025-265AD",
        "meta_epoch": "2025-12-17T05:13:30.551808",
        "meta_mean_motion": 15.47188363,
        "meta_eccentricity": 0.00074969,
        "meta_inclination": 43.0009,
        "meta_ra_of_asc_node": 27.7409,
        "meta_arg_of_pericenter": 349.7572,
        "meta_mean_anomaly": 10.3133,
        "meta_ephemeris_type": 0,
        "meta_classification_type": "U",
        "meta_norad_cat_id": 66543,
        "meta_element_set_no": 999,
        "meta_rev_at_epoch": 445,
        "meta_bstar": 0.0015235923,
        "meta_mean_motion_dot": 0.00079898,
        "meta_mean_motion_ddot": 0,
        "tle_line1": "1 66543U 25265AD  25351.21771472  .00079898  00000+0  15236-2 0  9990",
        "tle_line2": "2 66543  43.0009  27.7409 0007496 349.7572  10.3133 15.47188363  4454"
      },
      "geometry": {
        "type": "Point",
        "coordinates": [
          66.68798252518322,
          31.948728597922308
        ]
      }
    },
    {
      "type": "Feature",
      "properties": {
        "norad_id": 66544,
        "name": "STARLINK-35728",
        "group": "last-30-days",
        "lat": 40.959061653931215,
        "lon": 93.30781548611947,
        "alt_km": 409.04287005705646,
        "timestamp": "2025-12-17T17:50:17.972174+00:00",
        "meta_object_name": "STARLINK-35728",
        "meta_object_id": "2025-265AE",
        "meta_epoch": "2025-12-17T03:36:26.094528",
        "meta_mean_motion": 15.50584137,
        "meta_eccentricity": 0.00011565,
        "meta_inclination": 42.9979,
        "meta_ra_of_asc_node": 28.0939,
        "meta_arg_of_pericenter": 269.0405,
        "meta_mean_anomaly": 91.0322,
        "meta_ephemeris_type": 0,
        "meta_classification_type": "U",
        "meta_norad_cat_id": 66544,
        "meta_element_set_no": 999,
        "meta_rev_at_epoch": 444,
        "meta_bstar": 0.00095997873,
        "meta_mean_motion_dot": 0.00056392,
        "meta_mean_motion_ddot": 0,
        "tle_line1": "1 66544U 25265AE  25351.15030202  .00056392  00000+0  95998-3 0  9991",
        "tle_line2": "2 66544  42.9979  28.0939 0001156 269.0405  91.0322 15.50584137  4445"
      },
      "geometry": {
        "type": "Point",
        "coordinates": [
          93.30781548611947,
          40.959061653931215
        ]
      }
    },
    {
      "type": "Feature",
      "properties": {
        "norad_id": 66545,
        "name": "SHIJIAN-30A",
        "group": "last-30-days",
        "lat": -31.699517952271364,
        "lon": 158.5224142636528,
        "alt_km": 531.0115897365913,
        "timestamp": "2025-12-17T17:50:17.972185+00:00",
        "meta_object_name": "SHIJIAN-30A",
        "meta_object_id": "2025-266A",
        "meta_epoch": "2025-12-17T07:22:03.536832",
        "meta_mean_motion": 15.15552248,
        "meta_eccentricity": 0.00130121,
        "meta_inclination": 51.7991,
        "meta_ra_of_asc_node": 311.4656,
        "meta_arg_of_pericenter": 12.6443,
        "meta_mean_anomaly": 347.4857,
        "meta_ephemeris_type": 0,
        "meta_classification_type": "U",
        "meta_norad_cat_id": 66545,
        "meta_element_set_no": 999,
        "meta_rev_at_epoch": 427,
        "meta_bstar": 0.00052915066,
        "meta_mean_motion_dot": 9.884e-05,
        "meta_mean_motion_ddot": 0,
        "tle_line1": "1 66545U 25266A   25351.30698538  .00009884  00000+0  52915-3 0  9998",
        "tle_line2": "2 66545  51.7991 311.4656 0013012  12.6443 347.4857 15.15552248  4272"
      },
      "geometry": {
        "type": "Point",
        "coordinates": [
          158.5224142636528,
          -31.699517952271364
        ]
      }
    },
    {
      "type": "Feature",
      "properties": {
        "norad_id": 66546,
        "name": "SHIJIAN-30B",
        "group": "last-30-days",
        "lat": -27.031886057567377,
        "lon": 153.12260882235861,
        "alt_km": 529.86141359256,
        "timestamp": "2025-12-17T17:50:17.972196+00:00",
        "meta_object_name": "SHIJIAN-30B",
        "meta_object_id": "2025-266B",
        "meta_epoch": "2025-12-17T07:23:48.622560",
        "meta_mean_motion": 15.15531439,
        "meta_eccentricity": 0.00107202,
        "meta_inclination": 51.7975,
        "meta_ra_of_asc_node": 311.4693,
        "meta_arg_of_pericenter": 15.9526,
        "meta_mean_anomaly": 344.1786,
        "meta_ephemeris_type": 0,
        "meta_classification_type": "U",
        "meta_norad_cat_id": 66546,
        "meta_element_set_no": 999,
        "meta_rev_at_epoch": 427,
        "meta_bstar": 0.00058931854,
        "meta_mean_motion_dot": 0.00011032,
        "meta_mean_motion_ddot": 0,
        "tle_line1": "1 66546U 25266B   25351.30820165  .00011032  00000+0  58932-3 0  9995",
        "tle_line2": "2 66546  51.7975 311.4693 0010720  15.9526 344.1786 15.15531439  4271"
      },
      "geometry": {
        "type": "Point",
        "coordinates": [
          153.12260882235861,
          -27.031886057567377
        ]
      }
    },
    {
      "type": "Feature",
      "properties": {
        "norad_id": 66547,
        "name": "SHIJIAN-30C",
        "group": "last-30-days",
        "lat": -24.712330986954974,
        "lon": 150.68783705957514,
        "alt_km": 530.1983562791002,
        "timestamp": "2025-12-17T17:50:17.972206+00:00",
        "meta_object_name": "SHIJIAN-30C",
        "meta_object_id": "2025-266C",
        "meta_epoch": "2025-12-17T07:24:37.343520",
        "meta_mean_motion": 15.15474589,
        "meta_eccentricity": 0.00115993,
        "meta_inclination": 51.7985,
        "meta_ra_of_asc_node": 311.475,
        "meta_arg_of_pericenter": 7.7149,
        "meta_mean_anomaly": 352.4004,
        "meta_ephemeris_type": 0,
        "meta_classification_type": "U",
        "meta_norad_cat_id": 66547,
        "meta_element_set_no": 999,
        "meta_rev_at_epoch": 427,
        "meta_bstar": 0.00052877618,
        "meta_mean_motion_dot": 9.85e-05,
        "meta_mean_motion_ddot": 0,
        "tle_line1": "1 66547U 25266C   25351.30876555  .00009850  00000+0  52878-3 0  9998",
        "tle_line2": "2 66547  51.7985 311.4750 0011599   7.7149 352.4004 15.15474589  4279"
      },
      "geometry": {
        "type": "Point",
        "coordinates": [
          150.68783705957514,
          -24.712330986954974
        ]
      }
    },
    {
      "type": "Feature",
      "properties": {
        "norad_id": 66548,
        "name": "CZ-2C R/B",
        "group": "last-30-days",
        "lat": -51.47062936035824,
        "lon": -154.05933436506703,
        "alt_km": 461.96504083689706,
        "timestamp": "2025-12-17T17:50:17.972217+00:00",
        "meta_object_name": "CZ-2C R/B",
        "meta_object_id": "2025-266D",
        "meta_epoch": "2025-12-17T07:17:36.671424",
        "meta_mean_motion": 15.30275608,
        "meta_eccentricity": 0.00836977,
        "meta_inclination": 52.0549,
        "meta_ra_of_asc_node": 309.5334,
        "meta_arg_of_pericenter": 188.8252,
        "meta_mean_anomaly": 171.1267,
        "meta_ephemeris_type": 0,
        "meta_classification_type": "U",
        "meta_norad_cat_id": 66548,
        "meta_element_set_no": 999,
        "meta_rev_at_epoch": 431,
        "meta_bstar": 0.00030845809,
        "meta_mean_motion_dot": 9.809e-05,
        "meta_mean_motion_ddot": 0,
        "tle_line1": "1 66548U 25266D   25351.30389666  .00009809  00000+0  30846-3 0  9996",
        "tle_line2": "2 66548  52.0549 309.5334 0083697 188.8252 171.1267 15.30275608  4310"
      },
      "geometry": {
        "type": "Point",
        "coordinates": [
          -154.05933436506703,
          -51.47062936035824
        ]
      }
    },
    {
      "type": "Feature",
      "properties": {
        "norad_id": 66549,
        "name": "SHIJIAN-28",
        "group": "last-30-days",
        "lat": -1.3737128645774332,
        "lon": 110.96121885021803,
        "alt_km": 35784.74694642254,
        "timestamp": "2025-12-17T17:50:17.972232+00:00",
        "meta_object_name": "SHIJIAN-28",
        "meta_object_id": "2025-277A",
        "meta_epoch": "2025-12-17T05:19:16.086144",
        "meta_mean_motion": 1.0027008,
        "meta_eccentricity": 9.86e-05,
        "meta_inclination": 5.0075,
        "meta_ra_of_asc_node": 274.8866,
        "meta_arg_of_pericenter": 135.8256,
        "meta_mean_anomaly": 232.0522,
        "meta_ephemeris_type": 0,
        "meta_classification_type": "U",
        "meta_norad_cat_id": 66549,
        "meta_element_set_no": 999,
        "meta_rev_at_epoch": 33,
        "meta_bstar": 0,
        "meta_mean_motion_dot": -3.3e-06,
        "meta_mean_motion_ddot": 0,
        "tle_line1": "1 66549U 25277A   25351.22171396 -.00000330  00000+0  00000+0 0  9995",
        "tle_line2": "2 66549   5.0075 274.8866 0000986 135.8256 232.0522  1.00270080   333"
      },
      "geometry": {
        "type": "Point",
        "coordinates": [
          110.96121885021803,
          -1.3737128645774332
        ]
      }
    }
  ]
}